STARLINK-32237          
1 60443U 24144U   26068.62841727  .00001518  00000+0  63376-4 0  9994
2 60443  53.1588 217.1357 0000868  58.8234 301.2851 15.30189107 89302
XCUBE-1                 
1 62400U 24247Z   26068.48297321  .00009773  00000+0  36224-3 0  9994
2 62400  44.9938 117.7807 0005235 331.1499  28.9094 15.27910558 67702
